[
  {
    "OBJECT_NAME": "CZ-2D R/B",
    "OBJECT_TYPE": "ROCKET BODY",
    "INTLDES": "05024B",
    "TLE_LINE1": "1 28738U 05024B   16208.76049788  .00000519  00000-0  35214-4 0  9999",
    "TLE_LINE2": "2 28738  97.5389 245.2801 0013531  49.1054 311.1345 15.10635509606677",
    "PERIOD": "95.324"
  },
  {
    "OBJECT_NAME": "ARIANE 5 R/B",
    "OBJECT_TYPE": "ROCKET BODY",
    "INTLDES": "05028B",
    "TLE_LINE1": "1 28787U 05028B   16209.57026087 -.00000206  00000-0 -81422-4 0  9991",
    "TLE_LINE2": "2 28787   6.7157 161.1645 7175583 315.9763 263.0148  2.26570040 90755",
    "PERIOD": "635.565"
  },
  {
    "OBJECT_NAME": "SL-24 R/B",
    "OBJECT_TYPE": "ROCKET BODY",
    "INTLDES": "05031C",
    "TLE_LINE1": "1 28811U 05031C   16208.93506904 +.00000122 +00000-0 +55541-4 0  9991",
    "TLE_LINE2": "2 28811 097.8059 333.3575 0409806 282.6280 189.7382 13.99940394558102",
    "PERIOD": "102.861"
  },
  {
    "OBJECT_NAME": "BREEZE-M R/B",
    "OBJECT_TYPE": "ROCKET BODY",
    "INTLDES": "05036B",
    "TLE_LINE1": "1 28869U 05036B   16208.47656694 -.00000089  00000-0  00000+0 0  9998",
    "TLE_LINE2": "2 28869   9.5206 213.5139 6267308 174.2043 199.5012  2.10740492 83764",
    "PERIOD": "683.304"
  },
  {
    "OBJECT_NAME": "DELTA 2 R/B(2) (PAM-D)",
    "OBJECT_TYPE": "ROCKET BODY",
    "INTLDES": "05038C",
    "TLE_LINE1": "1 28876U 05038C   16208.48438365  .00010648  00000-0  87868-3 0  9994",
    "TLE_LINE2": "2 28876  39.5021 272.7044 5618137 190.9103 148.4223  4.66973170169602",
    "PERIOD": "308.368"
  },
  {
    "OBJECT_NAME": "ARIANE 5 R/B",
    "OBJECT_TYPE": "ROCKET BODY",
    "INTLDES": "05041C",
    "TLE_LINE1": "1 28886U 05041C   16209.22225612 -.00000118  00000-0  28855-3 0  9994",
    "TLE_LINE2": "2 28886   7.8275 124.1709 7181732 218.0542 353.7431  2.24329967 88431",
    "PERIOD": "641.911"
  },
  {
    "OBJECT_NAME": "BLOCK DM-SL R/B",
    "OBJECT_TYPE": "ROCKET BODY",
    "INTLDES": "05044B",
    "TLE_LINE1": "1 28900U 05044B   16208.56640930 +.00000703 +00000-0 +30649-3 0  9997",
    "TLE_LINE2": "2 28900 003.2271 021.5924 7126096 237.1057 035.1784 02.47222123092391",
    "PERIOD": "582.472"
  },
  {
    "OBJECT_NAME": "ARIANE 5 R/B",
    "OBJECT_TYPE": "ROCKET BODY",
    "INTLDES": "05046C",
    "TLE_LINE1": "1 28904U 05046C   16208.50894906 -.00000112  00000-0  24694-3 0  9999",
    "TLE_LINE2": "2 28904   7.1124 111.1001 7205869   9.1853 358.9729  2.29090899 89354",
    "PERIOD": "628.571"
  },
  {
    "OBJECT_NAME": "SL-8 R/B",
    "OBJECT_TYPE": "ROCKET BODY",
    "INTLDES": "05048C",
    "TLE_LINE1": "1 28910U 05048C   16209.33973883  .00000026  00000-0  95718-4 0  9991",
    "TLE_LINE2": "2 28910  82.4676 100.0082 0015964 227.4710 180.2490 12.54890333485373",
    "PERIOD": "114.751"
  },
  {
    "OBJECT_NAME": "ARIANE 5 R/B",
    "OBJECT_TYPE": "ROCKET BODY",
    "INTLDES": "05049C",
    "TLE_LINE1": "1 28913U 05049C   16209.22692777 -.00000028  00000-0 -45260-3 0  9993",
    "TLE_LINE2": "2 28913   3.8121 229.2906 7140993 175.3228 346.0078  2.24860071 87082",
    "PERIOD": "640.398"
  },
  {
    "OBJECT_NAME": "SL-12 R/B(2)",
    "OBJECT_TYPE": "ROCKET BODY",
    "INTLDES": "05050D",
    "TLE_LINE1": "1 28918U 05050D   16208.55440794 -.00000024 +00000-0 +00000-0 0  9990",
    "TLE_LINE2": "2 28918 065.3507 076.3275 0007731 218.1462 327.0013 02.13505178082545",
    "PERIOD": "674.456"
  },
  {
    "OBJECT_NAME": "SL-12 R/B(AUX MOTOR)",
    "OBJECT_TYPE": "ROCKET BODY",
    "INTLDES": "05050E",
    "TLE_LINE1": "1 28919U 05050E   16207.60749396  .00000024  00000-0  96717-4 0  9999",
    "TLE_LINE2": "2 28919  64.7764 271.3732 5788684   7.8370 358.3607  4.23637449163218",
    "PERIOD": "339.913"
  },
  {
    "OBJECT_NAME": "SL-12 R/B(AUX MOTOR)",
    "OBJECT_TYPE": "ROCKET BODY",
    "INTLDES": "05050F",
    "TLE_LINE1": "1 28920U 05050F   16209.34048302  .00000001  00000-0  11917-3 0  9996",
    "TLE_LINE2": "2 28920  64.9260 267.7036 5805708 355.8108   0.9840  4.23911680163324",
    "PERIOD": "339.693"
  },
  {
    "OBJECT_NAME": "FREGAT R/B",
    "OBJECT_TYPE": "ROCKET BODY",
    "INTLDES": "05051B",
    "TLE_LINE1": "1 28923U 05051B   16207.03602634 -.00000029 +00000-0 +00000-0 0  9997",
    "TLE_LINE2": "2 28923 056.9402 089.9428 0011793 210.1822 101.6673 01.68647623065041",
    "PERIOD": "853.851"
  },
  {
    "OBJECT_NAME": "BREEZE-M R/B",
    "OBJECT_TYPE": "ROCKET BODY",
    "INTLDES": "05052B",
    "TLE_LINE1": "1 28925U 05052B   16208.72909231 -.00000012 +00000-0 +00000-0 0  9992",
    "TLE_LINE2": "2 28925 019.4977 035.9293 5375341 132.5594 040.9830 01.94152417074923",
    "PERIOD": "741.685"
  },
  {
    "OBJECT_NAME": "H-2A R/B",
    "OBJECT_TYPE": "ROCKET BODY",
    "INTLDES": "06002B",
    "TLE_LINE1": "1 28932U 06002B   16209.39314572  .00000287  00000-0  33592-4 0  9997",
    "TLE_LINE2": "2 28932  98.2110 113.2888 0089475 295.9436 189.0575 14.90965606569404",
    "PERIOD": "96.581"
  },
  {
    "OBJECT_NAME": "BLOCK DM-SL R/B",
    "OBJECT_TYPE": "ROCKET BODY",
    "INTLDES": "06003B",
    "TLE_LINE1": "1 28936U 06003B   16208.94447220 -.00000107 +00000-0 +00000-0 0  9995",
    "TLE_LINE2": "2 28936 000.2654 125.9228 6783766 040.2514 114.1737 02.19496453083766",
    "PERIOD": "656.047"
  },
  {
    "OBJECT_NAME": "H-2A R/B",
    "OBJECT_TYPE": "ROCKET BODY",
    "INTLDES": "06004B",
    "TLE_LINE1": "1 28938U 06004B   16208.03361041 +.00000977 +00000-0 +39452-3 0  9994",
    "TLE_LINE2": "2 28938 028.3031 152.1765 6903111 203.5995 096.8924 02.74753798095475",
    "PERIOD": "524.105"
  },
  {
    "OBJECT_NAME": "BREEZE-M R/B",
    "OBJECT_TYPE": "ROCKET BODY",
    "INTLDES": "06006B",
    "TLE_LINE1": "1 28944U 06006B   16208.95120525 +.00000018 +00000-0 +00000-0 0  9994",
    "TLE_LINE2": "2 28944 050.6845 201.5598 4796258 125.0710 317.5050 05.07311121174592",
    "PERIOD": "283.849"
  },
  {
    "OBJECT_NAME": "ARIANE 5 R/B",
    "OBJECT_TYPE": "ROCKET BODY",
    "INTLDES": "06007D",
    "TLE_LINE1": "1 28948U 06007D   16209.12519707  .00000993  00000-0  34760-3 0  9998",
    "TLE_LINE2": "2 28948   4.8726 107.7214 7120763 230.4788  41.5357  2.47629060 90246",
    "PERIOD": "581.514"
  },
  {
    "OBJECT_NAME": "PEGASUS R/B",
    "OBJECT_TYPE": "ROCKET BODY",
    "INTLDES": "06008D",
    "TLE_LINE1": "1 28983U 06008D   16209.39456985  .00004044  25741-5  21464-3 0  9997",
    "TLE_LINE2": "2 28983 105.5678 358.8573 2060422 245.6009  91.6933 11.25697179407443",
    "PERIOD": "127.920"
  },
  {
    "OBJECT_NAME": "BREEZE-M R/B",
    "OBJECT_TYPE": "ROCKET BODY",
    "INTLDES": "03024C",
    "TLE_LINE1": "1 28998U 03024C   16208.77784838 -.00000105 +00000-0 +00000-0 0  9991",
    "TLE_LINE2": "2 28998 017.4280 124.0571 5122962 144.5251 002.0643 01.82402620020270",
    "PERIOD": "789.462"
  },
  {
    "OBJECT_NAME": "SCATHA AKM",
    "OBJECT_TYPE": "ROCKET BODY",
    "INTLDES": "79007C",
    "TLE_LINE1": "1 29000U 79007C   16208.84222985 -.00000055 +00000-0 +00000-0 0  9992",
    "TLE_LINE2": "2 29000 017.3574 331.9846 1770157 015.0983 298.5661 01.01589028011247",
    "PERIOD": "1417.475"
  },
  {
    "OBJECT_NAME": "BLOCK DM-SL R/B",
    "OBJECT_TYPE": "ROCKET BODY",
    "INTLDES": "06010B",
    "TLE_LINE1": "1 29046U 06010B   16208.59687209 +.00000014 +00000-0 +23719-1 0  9999",
    "TLE_LINE2": "2 29046 000.1609 092.0275 6782614 112.8072 277.9007 02.19415966082486",
    "PERIOD": "656.287"
  },
  {
    "OBJECT_NAME": "MINOTAUR R/B",
    "OBJECT_TYPE": "ROCKET BODY",
    "INTLDES": "06011G",
    "TLE_LINE1": "1 29053U 06011G   16208.86876306 +.00011207 +00000-0 +12785-3 0  9995",
    "TLE_LINE2": "2 29053 072.0002 011.3604 0009079 164.7956 195.3525 15.62294673573123",
    "PERIOD": "92.172"
  },
  {
    "OBJECT_NAME": "ATLAS 5 CENTAUR R/B",
    "OBJECT_TYPE": "ROCKET BODY",
    "INTLDES": "06012B",
    "TLE_LINE1": "1 29056U 06012B   16208.94890212 +.00000243 +00000-0 +00000-0 0  9992",
    "TLE_LINE2": "2 29056 023.1955 253.6636 5421168 244.2590 202.6515 01.96353596073641",
    "PERIOD": "733.370"
  },
  {
    "OBJECT_NAME": "SL-18 R/B",
    "OBJECT_TYPE": "ROCKET BODY",
    "INTLDES": "06014B",
    "TLE_LINE1": "1 29080U 06014B   16208.70017118 +.00015028 +00000-0 +12844-3 0  9990",
    "TLE_LINE2": "2 29080 097.6232 080.0852 0003014 123.8277 236.3271 15.69589014572658",
    "PERIOD": "91.743"
  },
  {
    "OBJECT_NAME": "CZ-4B R/B",
    "OBJECT_TYPE": "ROCKET BODY",
    "INTLDES": "06015B",
    "TLE_LINE1": "1 29093U 06015B   16208.94214391 +.00003133 +00000-0 +81864-4 0  9996",
    "TLE_LINE2": "2 29093 097.4852 307.0078 0069866 046.2522 314.4476 15.37099972567426",
    "PERIOD": "93.682"
  },
  {
    "OBJECT_NAME": "DELTA 4 R/B",
    "OBJECT_TYPE": "ROCKET BODY",
    "INTLDES": "06018B",
    "TLE_LINE1": "1 29156U 06018B   16208.62355201 -.00000211 +00000-0 +00000-0 0  9994",
    "TLE_LINE2": "2 29156 013.1156 332.8997 5239734 296.9976 018.7286 01.93075053071759",
    "PERIOD": "745.823"
  },
  {
    "OBJECT_NAME": "ARIANE 5 R/B",
    "OBJECT_TYPE": "ROCKET BODY",
    "INTLDES": "06020D",
    "TLE_LINE1": "1 29165U 06020D   16207.99727803 +.00008515 +00000-0 +77971-3 0  9995",
    "TLE_LINE2": "2 29165 007.3764 358.1993 6701052 180.6757 177.7025 03.06843092096868",
    "PERIOD": "469.295"
  },
  {
    "OBJECT_NAME": "SL-12 R/B(2)",
    "OBJECT_TYPE": "ROCKET BODY",
    "INTLDES": "06022D",
    "TLE_LINE1": "1 29233U 06022D   16209.39111774 -.00000205  00000-0  00000+0 0  9997",
    "TLE_LINE2": "2 29233   8.0443  47.6915 0047498 308.2869 225.7034  1.01003913 37292",
    "PERIOD": "1425.687"
  },
  {
    "OBJECT_NAME": "BLOCK DM-SL R/B",
    "OBJECT_TYPE": "ROCKET BODY",
    "INTLDES": "06023B",
    "TLE_LINE1": "1 29237U 06023B   16208.67294770 -.00000028  00000-0  00000+0 0  9993",
    "TLE_LINE2": "2 29237   0.8924 325.6752 6610940 255.9081   7.5295  2.15887279 79715",
    "PERIOD": "667.014"
  }
]
